"","postCode","town","district","county","shortPostCode","population2019","population2020","population2021","population2022"
"1","CV13 0QG","NUNEATON","HINCKLEY AND BOSWORTH","LEICESTERSHIRE","CV13",10774.1329025262,10834.6033042092,10895.4130992812,10956.564192606
"2","LE67 8FW","COALVILLE","NORTH WEST LEICESTERSHIRE","LEICESTERSHIRE","LE67",59234.6018751542,59567.0592711534,59901.3826022083,60237.5823409802
"3","DE74 2UU","DERBY","NORTH WEST LEICESTERSHIRE","LEICESTERSHIRE","DE74",11555.4938569095,11620.3496890674,11685.5695280792,11751.1554169531
"4","LE16 7TY","MARKET HARBOROUGH","HARBOROUGH","LEICESTERSHIRE","LE16",35171.2990727882,35368.6998847037,35567.2086193168,35766.8314949033
"5","LE10 2QS","HINCKLEY","HINCKLEY AND BOSWORTH","LEICESTERSHIRE","LE10",47740.4503840328,48008.3962352087,48277.8459469177,48548.807959658
"6","OL12 8XG","ROCHDALE","ROSSENDALE","LANCASHIRE","OL12",45923.3084991285,46181.0555435244,46440.2492071005,46700.897609085
"7","LE17 5JL","LUTTERWORTH","HARBOROUGH","LEICESTERSHIRE","LE17",20763.8880130073,20880.4264537345,20997.618972742,21115.4692410797
"8","DE12 6EZ","SWADLINCOTE","NORTH WEST LEICESTERSHIRE","LEICESTERSHIRE","DE12",20576.8440779812,20692.3327245406,20808.4695573541,20925.258214402
"9","LE12 5BP","LOUGHBOROUGH","CHARNWOOD","LEICESTERSHIRE","LE12",62470.6630736169,62821.2830375287,63173.8708748877,63528.4376304898
"10","CV13 0DJ","NUNEATON","HINCKLEY AND BOSWORTH","LEICESTERSHIRE","CV13",10774.1329025262,10834.6033042092,10895.4130992812,10956.564192606
"11","DE12 6EZ","SWADLINCOTE","NORTH WEST LEICESTERSHIRE","LEICESTERSHIRE","DE12",20576.8440779812,20692.3327245406,20808.4695573541,20925.258214402
"12","LE17 6LR","LUTTERWORTH","HARBOROUGH","LEICESTERSHIRE","LE17",20763.8880130073,20880.4264537345,20997.618972742,21115.4692410797
"13","CV13 0PU","NUNEATON","HINCKLEY AND BOSWORTH","LEICESTERSHIRE","CV13",10774.1329025262,10834.6033042092,10895.4130992812,10956.564192606
"14","LE12 8LR","LOUGHBOROUGH","CHARNWOOD","LEICESTERSHIRE","LE12",62470.6630736169,62821.2830375287,63173.8708748877,63528.4376304898
"15","LE12 8SX","LOUGHBOROUGH","CHARNWOOD","LEICESTERSHIRE","LE12",62470.6630736169,62821.2830375287,63173.8708748877,63528.4376304898
"16","LE14 4AE","MELTON MOWBRAY","MELTON","LEICESTERSHIRE","LE14",17418.2150461691,17515.9757170251,17614.285074916,17713.1461993773
"17","LE10 2AJ","HINCKLEY","HINCKLEY AND BOSWORTH","LEICESTERSHIRE","LE10",47740.4503840328,48008.3962352087,48277.8459469177,48548.807959658
"18","LE67 8FZ","COALVILLE","NORTH WEST LEICESTERSHIRE","LEICESTERSHIRE","LE67",59234.6018751542,59567.0592711534,59901.3826022083,60237.5823409802
"19","LE12 9UQ","LOUGHBOROUGH","CHARNWOOD","LEICESTERSHIRE","LE12",62470.6630736169,62821.2830375287,63173.8708748877,63528.4376304898
"20","BB10 3QR","BURNLEY","BURNLEY","LANCASHIRE","BB10",37642.08911773,37853.357371958,38065.8113806509,38279.4577989198
"21","LE12 7FP","LOUGHBOROUGH","CHARNWOOD","LEICESTERSHIRE","LE12",62470.6630736169,62821.2830375287,63173.8708748877,63528.4376304898
"22","LE12 7FP","LOUGHBOROUGH","CHARNWOOD","LEICESTERSHIRE","LE12",62470.6630736169,62821.2830375287,63173.8708748877,63528.4376304898
"23","LE16 7TY","MARKET HARBOROUGH","HARBOROUGH","LEICESTERSHIRE","LE16",35171.2990727882,35368.6998847037,35567.2086193168,35766.8314949033
"24","BB12 8EX","BURNLEY","BURNLEY","LANCASHIRE","BB12",34807.267328275,35002.6249924017,35199.0791119489,35396.6358408316
"25","LE17 6DF","LUTTERWORTH","HARBOROUGH","LEICESTERSHIRE","LE17",20763.8880130073,20880.4264537345,20997.618972742,21115.4692410797
"26","LE16 7EU","MARKET HARBOROUGH","HARBOROUGH","LEICESTERSHIRE","LE16",35171.2990727882,35368.6998847037,35567.2086193168,35766.8314949033
"27","LE12 9NX","LOUGHBOROUGH","CHARNWOOD","LEICESTERSHIRE","LE12",62470.6630736169,62821.2830375287,63173.8708748877,63528.4376304898
"28","PR26 9HB","LEYLAND","CHORLEY","LANCASHIRE","PR26",15675.4884902537,15763.4680143749,15851.9413283177,15940.911203504
"29","BB10 3LQ","BURNLEY","BURNLEY","LANCASHIRE","BB10",37642.08911773,37853.357371958,38065.8113806509,38279.4577989198
"30","LE17 4RX","LUTTERWORTH","HARBOROUGH","LEICESTERSHIRE","LE17",20763.8880130073,20880.4264537345,20997.618972742,21115.4692410797
"31","BB12 7FS","BURNLEY","RIBBLE VALLEY","LANCASHIRE","BB12",34807.267328275,35002.6249924017,35199.0791119489,35396.6358408316
"32","LE16 7HP","MARKET HARBOROUGH","HARBOROUGH","LEICESTERSHIRE","LE16",35171.2990727882,35368.6998847037,35567.2086193168,35766.8314949033
"33","LE10 2AJ","HINCKLEY","HINCKLEY AND BOSWORTH","LEICESTERSHIRE","LE10",47740.4503840328,48008.3962352087,48277.8459469177,48548.807959658
"34","LE12 8NS","LOUGHBOROUGH","CHARNWOOD","LEICESTERSHIRE","LE12",62470.6630736169,62821.2830375287,63173.8708748877,63528.4376304898
"35","LE19 4AS","LEICESTER","BLABY","LEICESTERSHIRE","LE19",14844.8525207291,14928.1700556968,15011.9552148207,15096.2106226665
"36","LE12 8YG","LOUGHBOROUGH","CHARNWOOD","LEICESTERSHIRE","LE12",62470.6630736169,62821.2830375287,63173.8708748877,63528.4376304898
"37","LE17 5BU","LUTTERWORTH","HARBOROUGH","LEICESTERSHIRE","LE17",20763.8880130073,20880.4264537345,20997.618972742,21115.4692410797
"38","LE12 8XH","LOUGHBOROUGH","CHARNWOOD","LEICESTERSHIRE","LE12",62470.6630736169,62821.2830375287,63173.8708748877,63528.4376304898
"39","LE19 3AA","LEICESTER","BLABY","LEICESTERSHIRE","LE19",14844.8525207291,14928.1700556968,15011.9552148207,15096.2106226665
"40","DE74 2BD","DERBY","NORTH WEST LEICESTERSHIRE","LEICESTERSHIRE","DE74",11555.4938569095,11620.3496890674,11685.5695280792,11751.1554169531
"41","LE12 9WJ","LOUGHBOROUGH","CHARNWOOD","LEICESTERSHIRE","LE12",62470.6630736169,62821.2830375287,63173.8708748877,63528.4376304898
"42","LE12 9WJ","LOUGHBOROUGH","CHARNWOOD","LEICESTERSHIRE","LE12",62470.6630736169,62821.2830375287,63173.8708748877,63528.4376304898
"43","LE12 8XH","LOUGHBOROUGH","CHARNWOOD","LEICESTERSHIRE","LE12",62470.6630736169,62821.2830375287,63173.8708748877,63528.4376304898
"44","LE12 7XF","LOUGHBOROUGH","CHARNWOOD","LEICESTERSHIRE","LE12",62470.6630736169,62821.2830375287,63173.8708748877,63528.4376304898
"45","LE19 2DW","LEICESTER","BLABY","LEICESTERSHIRE","LE19",14844.8525207291,14928.1700556968,15011.9552148207,15096.2106226665
"46","LE12 8BN","LOUGHBOROUGH","CHARNWOOD","LEICESTERSHIRE","LE12",62470.6630736169,62821.2830375287,63173.8708748877,63528.4376304898
"47","BB18 6XB","BARNOLDSWICK","PENDLE","LANCASHIRE","BB18",17275.4180635148,17372.3772786083,17469.880682523,17567.9313295481
"48","CV13 6NN","NUNEATON","HINCKLEY AND BOSWORTH","LEICESTERSHIRE","CV13",10774.1329025262,10834.6033042092,10895.4130992812,10956.564192606
"49","PR26 9AY","LEYLAND","CHORLEY","LANCASHIRE","PR26",15675.4884902537,15763.4680143749,15851.9413283177,15940.911203504
"50","BB10 2HS","BURNLEY","BURNLEY","LANCASHIRE","BB10",37642.08911773,37853.357371958,38065.8113806509,38279.4577989198
"51","LE17 5DE","LUTTERWORTH","HARBOROUGH","LEICESTERSHIRE","LE17",20763.8880130073,20880.4264537345,20997.618972742,21115.4692410797
"52","LE12 8XH","LOUGHBOROUGH","CHARNWOOD","LEICESTERSHIRE","LE12",62470.6630736169,62821.2830375287,63173.8708748877,63528.4376304898
"53","LE12 8XH","LOUGHBOROUGH","CHARNWOOD","LEICESTERSHIRE","LE12",62470.6630736169,62821.2830375287,63173.8708748877,63528.4376304898
"54","LE14 4LP","MELTON MOWBRAY","MELTON","LEICESTERSHIRE","LE14",17418.2150461691,17515.9757170251,17614.285074916,17713.1461993773
"55","LE12 9AN","LOUGHBOROUGH","CHARNWOOD","LEICESTERSHIRE","LE12",62470.6630736169,62821.2830375287,63173.8708748877,63528.4376304898
"56","LE17 6HU","LUTTERWORTH","HARBOROUGH","LEICESTERSHIRE","LE17",20763.8880130073,20880.4264537345,20997.618972742,21115.4692410797
"57","LE12 8GP","LOUGHBOROUGH","CHARNWOOD","LEICESTERSHIRE","LE12",62470.6630736169,62821.2830375287,63173.8708748877,63528.4376304898
"58","LE16 7HP","MARKET HARBOROUGH","HARBOROUGH","LEICESTERSHIRE","LE16",35171.2990727882,35368.6998847037,35567.2086193168,35766.8314949033
"59","BB12 9NZ","BURNLEY","PENDLE","LANCASHIRE","BB12",34807.267328275,35002.6249924017,35199.0791119489,35396.6358408316
"60","PR26 7SL","LEYLAND","SOUTH RIBBLE","LANCASHIRE","PR26",15675.4884902537,15763.4680143749,15851.9413283177,15940.911203504
"61","LE17 6DY","LUTTERWORTH","HARBOROUGH","LEICESTERSHIRE","LE17",20763.8880130073,20880.4264537345,20997.618972742,21115.4692410797
"62","DE74 2LJ","DERBY","NORTH WEST LEICESTERSHIRE","LEICESTERSHIRE","DE74",11555.4938569095,11620.3496890674,11685.5695280792,11751.1554169531
"63","LE19 2AA","LEICESTER","BLABY","LEICESTERSHIRE","LE19",14844.8525207291,14928.1700556968,15011.9552148207,15096.2106226665
"64","LE12 8XH","LOUGHBOROUGH","CHARNWOOD","LEICESTERSHIRE","LE12",62470.6630736169,62821.2830375287,63173.8708748877,63528.4376304898
"65","LE12 7XF","LOUGHBOROUGH","CHARNWOOD","LEICESTERSHIRE","LE12",62470.6630736169,62821.2830375287,63173.8708748877,63528.4376304898
"66","LE17 6LR","LUTTERWORTH","HARBOROUGH","LEICESTERSHIRE","LE17",20763.8880130073,20880.4264537345,20997.618972742,21115.4692410797
"67","LE17 6DF","LUTTERWORTH","HARBOROUGH","LEICESTERSHIRE","LE17",20763.8880130073,20880.4264537345,20997.618972742,21115.4692410797
"68","LE19 2DW","LEICESTER","BLABY","LEICESTERSHIRE","LE19",14844.8525207291,14928.1700556968,15011.9552148207,15096.2106226665
"69","OL13 0SE","BACUP","ROSSENDALE","LANCASHIRE","OL13",15183.7439513947,15268.9635327846,15354.6614136687,15440.8402785288
"70","CV13 0QG","NUNEATON","HINCKLEY AND BOSWORTH","LEICESTERSHIRE","CV13",10774.1329025262,10834.6033042092,10895.4130992812,10956.564192606
"71","LE14 4UB","MELTON MOWBRAY","MELTON","LEICESTERSHIRE","LE14",17418.2150461691,17515.9757170251,17614.285074916,17713.1461993773
"72","LE16 9TG","MARKET HARBOROUGH","HARBOROUGH","LEICESTERSHIRE","LE16",35171.2990727882,35368.6998847037,35567.2086193168,35766.8314949033
"73","CV13 6AH","NUNEATON","HINCKLEY AND BOSWORTH","LEICESTERSHIRE","CV13",10774.1329025262,10834.6033042092,10895.4130992812,10956.564192606
"74","LE12 9DA","LOUGHBOROUGH","CHARNWOOD","LEICESTERSHIRE","LE12",62470.6630736169,62821.2830375287,63173.8708748877,63528.4376304898
"75","LE19 3AA","LEICESTER","BLABY","LEICESTERSHIRE","LE19",14844.8525207291,14928.1700556968,15011.9552148207,15096.2106226665
"76","LE12 8XH","LOUGHBOROUGH","CHARNWOOD","LEICESTERSHIRE","LE12",62470.6630736169,62821.2830375287,63173.8708748877,63528.4376304898
"77","LE12 8XH","LOUGHBOROUGH","CHARNWOOD","LEICESTERSHIRE","LE12",62470.6630736169,62821.2830375287,63173.8708748877,63528.4376304898
"78","PR26 6TH","LEYLAND","SOUTH RIBBLE","LANCASHIRE","PR26",15675.4884902537,15763.4680143749,15851.9413283177,15940.911203504
"79","LE12 7EA","LOUGHBOROUGH","CHARNWOOD","LEICESTERSHIRE","LE12",62470.6630736169,62821.2830375287,63173.8708748877,63528.4376304898
"80","LE12 9WJ","LOUGHBOROUGH","CHARNWOOD","LEICESTERSHIRE","LE12",62470.6630736169,62821.2830375287,63173.8708748877,63528.4376304898
"81","LE12 8XH","LOUGHBOROUGH","CHARNWOOD","LEICESTERSHIRE","LE12",62470.6630736169,62821.2830375287,63173.8708748877,63528.4376304898
"82","LE12 7XF","LOUGHBOROUGH","CHARNWOOD","LEICESTERSHIRE","LE12",62470.6630736169,62821.2830375287,63173.8708748877,63528.4376304898
"83","LE12 8XH","LOUGHBOROUGH","CHARNWOOD","LEICESTERSHIRE","LE12",62470.6630736169,62821.2830375287,63173.8708748877,63528.4376304898
"84","LE12 8XH","LOUGHBOROUGH","CHARNWOOD","LEICESTERSHIRE","LE12",62470.6630736169,62821.2830375287,63173.8708748877,63528.4376304898
"85","LE12 8XH","LOUGHBOROUGH","CHARNWOOD","LEICESTERSHIRE","LE12",62470.6630736169,62821.2830375287,63173.8708748877,63528.4376304898
"86","LE12 8XH","LOUGHBOROUGH","CHARNWOOD","LEICESTERSHIRE","LE12",62470.6630736169,62821.2830375287,63173.8708748877,63528.4376304898
"87","LE12 8XH","LOUGHBOROUGH","CHARNWOOD","LEICESTERSHIRE","LE12",62470.6630736169,62821.2830375287,63173.8708748877,63528.4376304898
"88","LE12 8XH","LOUGHBOROUGH","CHARNWOOD","LEICESTERSHIRE","LE12",62470.6630736169,62821.2830375287,63173.8708748877,63528.4376304898
"89","LE12 8XH","LOUGHBOROUGH","CHARNWOOD","LEICESTERSHIRE","LE12",62470.6630736169,62821.2830375287,63173.8708748877,63528.4376304898
"90","LE12 8XH","LOUGHBOROUGH","CHARNWOOD","LEICESTERSHIRE","LE12",62470.6630736169,62821.2830375287,63173.8708748877,63528.4376304898
"91","LE12 8XH","LOUGHBOROUGH","CHARNWOOD","LEICESTERSHIRE","LE12",62470.6630736169,62821.2830375287,63173.8708748877,63528.4376304898
"92","LE12 8XH","LOUGHBOROUGH","CHARNWOOD","LEICESTERSHIRE","LE12",62470.6630736169,62821.2830375287,63173.8708748877,63528.4376304898
"93","LE12 8XH","LOUGHBOROUGH","CHARNWOOD","LEICESTERSHIRE","LE12",62470.6630736169,62821.2830375287,63173.8708748877,63528.4376304898
"94","LE12 8XH","LOUGHBOROUGH","CHARNWOOD","LEICESTERSHIRE","LE12",62470.6630736169,62821.2830375287,63173.8708748877,63528.4376304898
"95","LE12 8XH","LOUGHBOROUGH","CHARNWOOD","LEICESTERSHIRE","LE12",62470.6630736169,62821.2830375287,63173.8708748877,63528.4376304898
"96","LE12 8XH","LOUGHBOROUGH","CHARNWOOD","LEICESTERSHIRE","LE12",62470.6630736169,62821.2830375287,63173.8708748877,63528.4376304898
"97","LE12 8XH","LOUGHBOROUGH","CHARNWOOD","LEICESTERSHIRE","LE12",62470.6630736169,62821.2830375287,63173.8708748877,63528.4376304898
"98","LE12 8XH","LOUGHBOROUGH","CHARNWOOD","LEICESTERSHIRE","LE12",62470.6630736169,62821.2830375287,63173.8708748877,63528.4376304898
"99","LE12 8XH","LOUGHBOROUGH","CHARNWOOD","LEICESTERSHIRE","LE12",62470.6630736169,62821.2830375287,63173.8708748877,63528.4376304898
"100","LE12 8XH","LOUGHBOROUGH","CHARNWOOD","LEICESTERSHIRE","LE12",62470.6630736169,62821.2830375287,63173.8708748877,63528.4376304898
"101","LE12 8XH","LOUGHBOROUGH","CHARNWOOD","LEICESTERSHIRE","LE12",62470.6630736169,62821.2830375287,63173.8708748877,63528.4376304898
"102","LE12 8XH","LOUGHBOROUGH","CHARNWOOD","LEICESTERSHIRE","LE12",62470.6630736169,62821.2830375287,63173.8708748877,63528.4376304898
"103","LE12 8XH","LOUGHBOROUGH","CHARNWOOD","LEICESTERSHIRE","LE12",62470.6630736169,62821.2830375287,63173.8708748877,63528.4376304898
"104","LE12 8XH","LOUGHBOROUGH","CHARNWOOD","LEICESTERSHIRE","LE12",62470.6630736169,62821.2830375287,63173.8708748877,63528.4376304898
"105","LE12 8XH","LOUGHBOROUGH","CHARNWOOD","LEICESTERSHIRE","LE12",62470.6630736169,62821.2830375287,63173.8708748877,63528.4376304898
"106","LE12 8XH","LOUGHBOROUGH","CHARNWOOD","LEICESTERSHIRE","LE12",62470.6630736169,62821.2830375287,63173.8708748877,63528.4376304898
"107","LE12 8XH","LOUGHBOROUGH","CHARNWOOD","LEICESTERSHIRE","LE12",62470.6630736169,62821.2830375287,63173.8708748877,63528.4376304898
"108","LE12 8XH","LOUGHBOROUGH","CHARNWOOD","LEICESTERSHIRE","LE12",62470.6630736169,62821.2830375287,63173.8708748877,63528.4376304898
"109","LE12 8XH","LOUGHBOROUGH","CHARNWOOD","LEICESTERSHIRE","LE12",62470.6630736169,62821.2830375287,63173.8708748877,63528.4376304898
"110","LE12 8XH","LOUGHBOROUGH","CHARNWOOD","LEICESTERSHIRE","LE12",62470.6630736169,62821.2830375287,63173.8708748877,63528.4376304898
"111","LE12 8XH","LOUGHBOROUGH","CHARNWOOD","LEICESTERSHIRE","LE12",62470.6630736169,62821.2830375287,63173.8708748877,63528.4376304898
"112","LE12 8XH","LOUGHBOROUGH","CHARNWOOD","LEICESTERSHIRE","LE12",62470.6630736169,62821.2830375287,63173.8708748877,63528.4376304898
"113","LE12 8XH","LOUGHBOROUGH","CHARNWOOD","LEICESTERSHIRE","LE12",62470.6630736169,62821.2830375287,63173.8708748877,63528.4376304898
"114","LE12 8XH","LOUGHBOROUGH","CHARNWOOD","LEICESTERSHIRE","LE12",62470.6630736169,62821.2830375287,63173.8708748877,63528.4376304898
"115","LE12 7XF","LOUGHBOROUGH","CHARNWOOD","LEICESTERSHIRE","LE12",62470.6630736169,62821.2830375287,63173.8708748877,63528.4376304898
"116","CV13 0PE","NUNEATON","HINCKLEY AND BOSWORTH","LEICESTERSHIRE","CV13",10774.1329025262,10834.6033042092,10895.4130992812,10956.564192606
"117","LE17 6DF","LUTTERWORTH","HARBOROUGH","LEICESTERSHIRE","LE17",20763.8880130073,20880.4264537345,20997.618972742,21115.4692410797
"118","DE74 2GD","DERBY","NORTH WEST LEICESTERSHIRE","LEICESTERSHIRE","DE74",11555.4938569095,11620.3496890674,11685.5695280792,11751.1554169531
"119","BB12 8PY","BURNLEY","BURNLEY","LANCASHIRE","BB12",34807.267328275,35002.6249924017,35199.0791119489,35396.6358408316
"120","LE17 4HZ","LUTTERWORTH","HARBOROUGH","LEICESTERSHIRE","LE17",20763.8880130073,20880.4264537345,20997.618972742,21115.4692410797
"121","CV13 6EX","NUNEATON","HINCKLEY AND BOSWORTH","LEICESTERSHIRE","CV13",10774.1329025262,10834.6033042092,10895.4130992812,10956.564192606
"122","BB12 8PY","BURNLEY","BURNLEY","LANCASHIRE","BB12",34807.267328275,35002.6249924017,35199.0791119489,35396.6358408316
"123","LE16 7UZ","MARKET HARBOROUGH","HARBOROUGH","LEICESTERSHIRE","LE16",35171.2990727882,35368.6998847037,35567.2086193168,35766.8314949033
"124","LE19 2DW","LEICESTER","BLABY","LEICESTERSHIRE","LE19",14844.8525207291,14928.1700556968,15011.9552148207,15096.2106226665
"125","LE19 3AA","LEICESTER","BLABY","LEICESTERSHIRE","LE19",14844.8525207291,14928.1700556968,15011.9552148207,15096.2106226665
"126","LE12 8PB","LOUGHBOROUGH","CHARNWOOD","LEICESTERSHIRE","LE12",62470.6630736169,62821.2830375287,63173.8708748877,63528.4376304898
"127","LE67 2SA","COALVILLE","NORTH WEST LEICESTERSHIRE","LEICESTERSHIRE","LE67",59234.6018751542,59567.0592711534,59901.3826022083,60237.5823409802
"128","CV13 0PU","NUNEATON","HINCKLEY AND BOSWORTH","LEICESTERSHIRE","CV13",10774.1329025262,10834.6033042092,10895.4130992812,10956.564192606
"129","BB10 3RF","BURNLEY","PENDLE","LANCASHIRE","BB10",37642.08911773,37853.357371958,38065.8113806509,38279.4577989198
"130","BB10 3PQ","BURNLEY","BURNLEY","LANCASHIRE","BB10",37642.08911773,37853.357371958,38065.8113806509,38279.4577989198
"131","LE12 7AA","LOUGHBOROUGH","CHARNWOOD","LEICESTERSHIRE","LE12",62470.6630736169,62821.2830375287,63173.8708748877,63528.4376304898
"132","LE17 6QT","LUTTERWORTH","HARBOROUGH","LEICESTERSHIRE","LE17",20763.8880130073,20880.4264537345,20997.618972742,21115.4692410797
"133","LE17 5RG","LUTTERWORTH","HARBOROUGH","LEICESTERSHIRE","LE17",20763.8880130073,20880.4264537345,20997.618972742,21115.4692410797
"134","LE12 7FP","LOUGHBOROUGH","CHARNWOOD","LEICESTERSHIRE","LE12",62470.6630736169,62821.2830375287,63173.8708748877,63528.4376304898
"135","LE17 6AE","LUTTERWORTH","HARBOROUGH","LEICESTERSHIRE","LE17",20763.8880130073,20880.4264537345,20997.618972742,21115.4692410797
"136","LE12 9GR","LOUGHBOROUGH","NORTH WEST LEICESTERSHIRE","LEICESTERSHIRE","LE12",62470.6630736169,62821.2830375287,63173.8708748877,63528.4376304898
"137","LE17 5EG","LUTTERWORTH","HARBOROUGH","LEICESTERSHIRE","LE17",20763.8880130073,20880.4264537345,20997.618972742,21115.4692410797
"138","LE17 5EG","LUTTERWORTH","HARBOROUGH","LEICESTERSHIRE","LE17",20763.8880130073,20880.4264537345,20997.618972742,21115.4692410797
"139","BB12 9EP","BURNLEY","PENDLE","LANCASHIRE","BB12",34807.267328275,35002.6249924017,35199.0791119489,35396.6358408316
"140","LE10 2FG","HINCKLEY","HINCKLEY AND BOSWORTH","LEICESTERSHIRE","LE10",47740.4503840328,48008.3962352087,48277.8459469177,48548.807959658
"141","DE74 2UD","DERBY","NORTH WEST LEICESTERSHIRE","LEICESTERSHIRE","DE74",11555.4938569095,11620.3496890674,11685.5695280792,11751.1554169531
"142","LE67 1UE","COALVILLE","NORTH WEST LEICESTERSHIRE","LEICESTERSHIRE","LE67",59234.6018751542,59567.0592711534,59901.3826022083,60237.5823409802
"143","OL12 8BJ","ROCHDALE","ROSSENDALE","LANCASHIRE","OL12",45923.3084991285,46181.0555435244,46440.2492071005,46700.897609085
"144","PR26 7SL","LEYLAND","SOUTH RIBBLE","LANCASHIRE","PR26",15675.4884902537,15763.4680143749,15851.9413283177,15940.911203504
"145","LE12 8XH","LOUGHBOROUGH","CHARNWOOD","LEICESTERSHIRE","LE12",62470.6630736169,62821.2830375287,63173.8708748877,63528.4376304898
"146","LE14 3NQ","MELTON MOWBRAY","MELTON","LEICESTERSHIRE","LE14",17418.2150461691,17515.9757170251,17614.285074916,17713.1461993773
"147","LE12 8SS","LOUGHBOROUGH","CHARNWOOD","LEICESTERSHIRE","LE12",62470.6630736169,62821.2830375287,63173.8708748877,63528.4376304898
"148","LE12 9NX","LOUGHBOROUGH","CHARNWOOD","LEICESTERSHIRE","LE12",62470.6630736169,62821.2830375287,63173.8708748877,63528.4376304898
"149","LE14 4QG","MELTON MOWBRAY","MELTON","LEICESTERSHIRE","LE14",17418.2150461691,17515.9757170251,17614.285074916,17713.1461993773
"150","NG13 0EG","NOTTINGHAM","MELTON","LEICESTERSHIRE","NG13",21504.0188526806,21624.7113176413,21746.0811755674,21868.1322283634
"151","LE17 5EG","LUTTERWORTH","HARBOROUGH","LEICESTERSHIRE","LE17",20763.8880130073,20880.4264537345,20997.618972742,21115.4692410797
"152","LE67 8QJ","COALVILLE","NORTH WEST LEICESTERSHIRE","LEICESTERSHIRE","LE67",59234.6018751542,59567.0592711534,59901.3826022083,60237.5823409802
"153","LE12 9WJ","LOUGHBOROUGH","CHARNWOOD","LEICESTERSHIRE","LE12",62470.6630736169,62821.2830375287,63173.8708748877,63528.4376304898
"154","LE12 9WJ","LOUGHBOROUGH","CHARNWOOD","LEICESTERSHIRE","LE12",62470.6630736169,62821.2830375287,63173.8708748877,63528.4376304898
"155","LE12 8XH","LOUGHBOROUGH","CHARNWOOD","LEICESTERSHIRE","LE12",62470.6630736169,62821.2830375287,63173.8708748877,63528.4376304898
"156","LE12 8XH","LOUGHBOROUGH","CHARNWOOD","LEICESTERSHIRE","LE12",62470.6630736169,62821.2830375287,63173.8708748877,63528.4376304898
"157","LE17 5QE","LUTTERWORTH","HARBOROUGH","LEICESTERSHIRE","LE17",20763.8880130073,20880.4264537345,20997.618972742,21115.4692410797
"158","LE12 8DT","LOUGHBOROUGH","CHARNWOOD","LEICESTERSHIRE","LE12",62470.6630736169,62821.2830375287,63173.8708748877,63528.4376304898
"159","LE17 6HY","LUTTERWORTH","HARBOROUGH","LEICESTERSHIRE","LE17",20763.8880130073,20880.4264537345,20997.618972742,21115.4692410797
"160","LE17 5EN","LUTTERWORTH","HARBOROUGH","LEICESTERSHIRE","LE17",20763.8880130073,20880.4264537345,20997.618972742,21115.4692410797
"161","LE17 6EF","LUTTERWORTH","HARBOROUGH","LEICESTERSHIRE","LE17",20763.8880130073,20880.4264537345,20997.618972742,21115.4692410797
"162","LE12 7AL","LOUGHBOROUGH","CHARNWOOD","LEICESTERSHIRE","LE12",62470.6630736169,62821.2830375287,63173.8708748877,63528.4376304898
"163","CV13 0DJ","NUNEATON","HINCKLEY AND BOSWORTH","LEICESTERSHIRE","CV13",10774.1329025262,10834.6033042092,10895.4130992812,10956.564192606
"164","LE12 8XH","LOUGHBOROUGH","CHARNWOOD","LEICESTERSHIRE","LE12",62470.6630736169,62821.2830375287,63173.8708748877,63528.4376304898
"165","LE12 8XH","LOUGHBOROUGH","CHARNWOOD","LEICESTERSHIRE","LE12",62470.6630736169,62821.2830375287,63173.8708748877,63528.4376304898
"166","LE12 8XH","LOUGHBOROUGH","CHARNWOOD","LEICESTERSHIRE","LE12",62470.6630736169,62821.2830375287,63173.8708748877,63528.4376304898
"167","LE12 8XH","LOUGHBOROUGH","CHARNWOOD","LEICESTERSHIRE","LE12",62470.6630736169,62821.2830375287,63173.8708748877,63528.4376304898
"168","LE14 2UN","MELTON MOWBRAY","MELTON","LEICESTERSHIRE","LE14",17418.2150461691,17515.9757170251,17614.285074916,17713.1461993773
"169","LE67 8FZ","COALVILLE","NORTH WEST LEICESTERSHIRE","LEICESTERSHIRE","LE67",59234.6018751542,59567.0592711534,59901.3826022083,60237.5823409802
"170","LE12 8XH","LOUGHBOROUGH","CHARNWOOD","LEICESTERSHIRE","LE12",62470.6630736169,62821.2830375287,63173.8708748877,63528.4376304898
"171","LE12 8XH","LOUGHBOROUGH","CHARNWOOD","LEICESTERSHIRE","LE12",62470.6630736169,62821.2830375287,63173.8708748877,63528.4376304898
"172","LE12 8XH","LOUGHBOROUGH","CHARNWOOD","LEICESTERSHIRE","LE12",62470.6630736169,62821.2830375287,63173.8708748877,63528.4376304898
"173","LE17 5BU","LUTTERWORTH","HARBOROUGH","LEICESTERSHIRE","LE17",20763.8880130073,20880.4264537345,20997.618972742,21115.4692410797
"174","PR26 9AY","LEYLAND","CHORLEY","LANCASHIRE","PR26",15675.4884902537,15763.4680143749,15851.9413283177,15940.911203504
"175","DE72 2HP","DERBY","NORTH WEST LEICESTERSHIRE","LEICESTERSHIRE","DE72",20338.513902706,20452.6649083097,20567.4565925856,20682.8925513772
"176","NG13 0EP","NOTTINGHAM","MELTON","LEICESTERSHIRE","NG13",21504.0188526806,21624.7113176413,21746.0811755674,21868.1322283634
"177","DE12 7HR","SWADLINCOTE","NORTH WEST LEICESTERSHIRE","LEICESTERSHIRE","DE12",20576.8440779812,20692.3327245406,20808.4695573541,20925.258214402
"178","LE17 6DY","LUTTERWORTH","HARBOROUGH","LEICESTERSHIRE","LE17",20763.8880130073,20880.4264537345,20997.618972742,21115.4692410797
"179","LE19 2AA","LEICESTER","BLABY","LEICESTERSHIRE","LE19",14844.8525207291,14928.1700556968,15011.9552148207,15096.2106226665
"180","LE19 4PB","LEICESTER","BLABY","LEICESTERSHIRE","LE19",14844.8525207291,14928.1700556968,15011.9552148207,15096.2106226665
"181","LE67 2TB","COALVILLE","NORTH WEST LEICESTERSHIRE","LEICESTERSHIRE","LE67",59234.6018751542,59567.0592711534,59901.3826022083,60237.5823409802
"182","BB12 9JU","BURNLEY","PENDLE","LANCASHIRE","BB12",34807.267328275,35002.6249924017,35199.0791119489,35396.6358408316
"183","LE67 8UH","COALVILLE","NORTH WEST LEICESTERSHIRE","LEICESTERSHIRE","LE67",59234.6018751542,59567.0592711534,59901.3826022083,60237.5823409802
"184","PR26 9AY","LEYLAND","CHORLEY","LANCASHIRE","PR26",15675.4884902537,15763.4680143749,15851.9413283177,15940.911203504
"185","DE12 7HR","SWADLINCOTE","NORTH WEST LEICESTERSHIRE","LEICESTERSHIRE","DE12",20576.8440779812,20692.3327245406,20808.4695573541,20925.258214402
"186","LE14 3NQ","MELTON MOWBRAY","MELTON","LEICESTERSHIRE","LE14",17418.2150461691,17515.9757170251,17614.285074916,17713.1461993773
"187","LE14 3NQ","MELTON MOWBRAY","MELTON","LEICESTERSHIRE","LE14",17418.2150461691,17515.9757170251,17614.285074916,17713.1461993773
"188","LE12 8ST","LOUGHBOROUGH","CHARNWOOD","LEICESTERSHIRE","LE12",62470.6630736169,62821.2830375287,63173.8708748877,63528.4376304898
"189","LE12 7AA","LOUGHBOROUGH","CHARNWOOD","LEICESTERSHIRE","LE12",62470.6630736169,62821.2830375287,63173.8708748877,63528.4376304898
"190","LE10 2AJ","HINCKLEY","HINCKLEY AND BOSWORTH","LEICESTERSHIRE","LE10",47740.4503840328,48008.3962352087,48277.8459469177,48548.807959658
"191","LE17 6QT","LUTTERWORTH","HARBOROUGH","LEICESTERSHIRE","LE17",20763.8880130073,20880.4264537345,20997.618972742,21115.4692410797
"192","LE17 5JN","LUTTERWORTH","HARBOROUGH","LEICESTERSHIRE","LE17",20763.8880130073,20880.4264537345,20997.618972742,21115.4692410797
"193","LE19 2AA","LEICESTER","BLABY","LEICESTERSHIRE","LE19",14844.8525207291,14928.1700556968,15011.9552148207,15096.2106226665
"194","LE12 8GL","LOUGHBOROUGH","CHARNWOOD","LEICESTERSHIRE","LE12",62470.6630736169,62821.2830375287,63173.8708748877,63528.4376304898
"195","LE12 9NX","LOUGHBOROUGH","CHARNWOOD","LEICESTERSHIRE","LE12",62470.6630736169,62821.2830375287,63173.8708748877,63528.4376304898
"196","CV13 0LG","NUNEATON","HINCKLEY AND BOSWORTH","LEICESTERSHIRE","CV13",10774.1329025262,10834.6033042092,10895.4130992812,10956.564192606
"197","LE17 6PW","LUTTERWORTH","HARBOROUGH","LEICESTERSHIRE","LE17",20763.8880130073,20880.4264537345,20997.618972742,21115.4692410797
"198","BB10 3QS","BURNLEY","BURNLEY","LANCASHIRE","BB10",37642.08911773,37853.357371958,38065.8113806509,38279.4577989198
"199","BB11 5QF","BURNLEY","BURNLEY","LANCASHIRE","BB11",22345.7165602981,22471.1330990136,22597.2535448131,22724.081848413
"200","LE14 2AG","MELTON MOWBRAY","MELTON","LEICESTERSHIRE","LE14",17418.2150461691,17515.9757170251,17614.285074916,17713.1461993773
"201","CV13 0DW","NUNEATON","HINCKLEY AND BOSWORTH","LEICESTERSHIRE","CV13",10774.1329025262,10834.6033042092,10895.4130992812,10956.564192606
"202","BB18 6PQ","BARNOLDSWICK","PENDLE","LANCASHIRE","BB18",17275.4180635148,17372.3772786083,17469.880682523,17567.9313295481
"203","DE12 7LH","SWADLINCOTE","NORTH WEST LEICESTERSHIRE","LEICESTERSHIRE","DE12",20576.8440779812,20692.3327245406,20808.4695573541,20925.258214402
"204","BB18 6WA","BARNOLDSWICK","PENDLE","LANCASHIRE","BB18",17275.4180635148,17372.3772786083,17469.880682523,17567.9313295481
"205","LE12 9TP","LOUGHBOROUGH","NORTH WEST LEICESTERSHIRE","LEICESTERSHIRE","LE12",62470.6630736169,62821.2830375287,63173.8708748877,63528.4376304898
"206","LE10 2AW","HINCKLEY","HINCKLEY AND BOSWORTH","LEICESTERSHIRE","LE10",47740.4503840328,48008.3962352087,48277.8459469177,48548.807959658
"207","LE17 5QE","LUTTERWORTH","HARBOROUGH","LEICESTERSHIRE","LE17",20763.8880130073,20880.4264537345,20997.618972742,21115.4692410797
"208","DE12 7QQ","SWADLINCOTE","NORTH WEST LEICESTERSHIRE","LEICESTERSHIRE","DE12",20576.8440779812,20692.3327245406,20808.4695573541,20925.258214402
"209","BB18 6TW","BARNOLDSWICK","PENDLE","LANCASHIRE","BB18",17275.4180635148,17372.3772786083,17469.880682523,17567.9313295481
"210","BB18 6TW","BARNOLDSWICK","PENDLE","LANCASHIRE","BB18",17275.4180635148,17372.3772786083,17469.880682523,17567.9313295481
"211","LE14 4NN","MELTON MOWBRAY","MELTON","LEICESTERSHIRE","LE14",17418.2150461691,17515.9757170251,17614.285074916,17713.1461993773
"212","DE74 2BD","DERBY","NORTH WEST LEICESTERSHIRE","LEICESTERSHIRE","DE74",11555.4938569095,11620.3496890674,11685.5695280792,11751.1554169531
"213","DE74 2QF","DERBY","NORTH WEST LEICESTERSHIRE","LEICESTERSHIRE","DE74",11555.4938569095,11620.3496890674,11685.5695280792,11751.1554169531
"214","OL12 8BF","ROCHDALE","ROSSENDALE","LANCASHIRE","OL12",45923.3084991285,46181.0555435244,46440.2492071005,46700.897609085
"215","OL12 8BF","ROCHDALE","ROSSENDALE","LANCASHIRE","OL12",45923.3084991285,46181.0555435244,46440.2492071005,46700.897609085
"216","LE16 8UJ","MARKET HARBOROUGH","HARBOROUGH","LEICESTERSHIRE","LE16",35171.2990727882,35368.6998847037,35567.2086193168,35766.8314949033
"217","LE12 8NS","LOUGHBOROUGH","CHARNWOOD","LEICESTERSHIRE","LE12",62470.6630736169,62821.2830375287,63173.8708748877,63528.4376304898
"218","LE12 8ES","LOUGHBOROUGH","CHARNWOOD","LEICESTERSHIRE","LE12",62470.6630736169,62821.2830375287,63173.8708748877,63528.4376304898
"219","BB18 6WA","BARNOLDSWICK","PENDLE","LANCASHIRE","BB18",17275.4180635148,17372.3772786083,17469.880682523,17567.9313295481
"220","LE17 5RG","LUTTERWORTH","HARBOROUGH","LEICESTERSHIRE","LE17",20763.8880130073,20880.4264537345,20997.618972742,21115.4692410797
"221","CV13 6EX","NUNEATON","HINCKLEY AND BOSWORTH","LEICESTERSHIRE","CV13",10774.1329025262,10834.6033042092,10895.4130992812,10956.564192606
"222","LE17 6DF","LUTTERWORTH","HARBOROUGH","LEICESTERSHIRE","LE17",20763.8880130073,20880.4264537345,20997.618972742,21115.4692410797
"223","LE14 4QB","MELTON MOWBRAY","MELTON","LEICESTERSHIRE","LE14",17418.2150461691,17515.9757170251,17614.285074916,17713.1461993773
"224","DE74 2SA","DERBY","NORTH WEST LEICESTERSHIRE","LEICESTERSHIRE","DE74",11555.4938569095,11620.3496890674,11685.5695280792,11751.1554169531
"225","LE12 9BU","LOUGHBOROUGH","CHARNWOOD","LEICESTERSHIRE","LE12",62470.6630736169,62821.2830375287,63173.8708748877,63528.4376304898
"226","OL12 8PS","ROCHDALE","ROSSENDALE","LANCASHIRE","OL12",45923.3084991285,46181.0555435244,46440.2492071005,46700.897609085
"227","LE17 5DF","LUTTERWORTH","HARBOROUGH","LEICESTERSHIRE","LE17",20763.8880130073,20880.4264537345,20997.618972742,21115.4692410797
"228","LE12 9WQ","LOUGHBOROUGH","NORTH WEST LEICESTERSHIRE","LEICESTERSHIRE","LE12",62470.6630736169,62821.2830375287,63173.8708748877,63528.4376304898
"229","BB12 7FS","BURNLEY","RIBBLE VALLEY","LANCASHIRE","BB12",34807.267328275,35002.6249924017,35199.0791119489,35396.6358408316
"230","LE67 1UE","COALVILLE","NORTH WEST LEICESTERSHIRE","LEICESTERSHIRE","LE67",59234.6018751542,59567.0592711534,59901.3826022083,60237.5823409802
"231","BB12 7FS","BURNLEY","RIBBLE VALLEY","LANCASHIRE","BB12",34807.267328275,35002.6249924017,35199.0791119489,35396.6358408316
"232","BB12 7FS","BURNLEY","RIBBLE VALLEY","LANCASHIRE","BB12",34807.267328275,35002.6249924017,35199.0791119489,35396.6358408316
"233","BB12 7FS","BURNLEY","RIBBLE VALLEY","LANCASHIRE","BB12",34807.267328275,35002.6249924017,35199.0791119489,35396.6358408316
"234","BB12 7FS","BURNLEY","RIBBLE VALLEY","LANCASHIRE","BB12",34807.267328275,35002.6249924017,35199.0791119489,35396.6358408316
"235","BB12 7FS","BURNLEY","RIBBLE VALLEY","LANCASHIRE","BB12",34807.267328275,35002.6249924017,35199.0791119489,35396.6358408316
"236","BB12 7FS","BURNLEY","RIBBLE VALLEY","LANCASHIRE","BB12",34807.267328275,35002.6249924017,35199.0791119489,35396.6358408316
"237","BB18 6TW","BARNOLDSWICK","PENDLE","LANCASHIRE","BB18",17275.4180635148,17372.3772786083,17469.880682523,17567.9313295481
"238","BB18 6TW","BARNOLDSWICK","PENDLE","LANCASHIRE","BB18",17275.4180635148,17372.3772786083,17469.880682523,17567.9313295481
"239","LE12 5BP","LOUGHBOROUGH","CHARNWOOD","LEICESTERSHIRE","LE12",62470.6630736169,62821.2830375287,63173.8708748877,63528.4376304898
"240","CV13 0DR","NUNEATON","HINCKLEY AND BOSWORTH","LEICESTERSHIRE","CV13",10774.1329025262,10834.6033042092,10895.4130992812,10956.564192606
"241","DE12 7EU","SWADLINCOTE","NORTH WEST LEICESTERSHIRE","LEICESTERSHIRE","DE12",20576.8440779812,20692.3327245406,20808.4695573541,20925.258214402
"242","LE12 7DL","LOUGHBOROUGH","CHARNWOOD","LEICESTERSHIRE","LE12",62470.6630736169,62821.2830375287,63173.8708748877,63528.4376304898
"243","LE12 7DL","LOUGHBOROUGH","CHARNWOOD","LEICESTERSHIRE","LE12",62470.6630736169,62821.2830375287,63173.8708748877,63528.4376304898
"244","LE67 8FZ","COALVILLE","NORTH WEST LEICESTERSHIRE","LEICESTERSHIRE","LE67",59234.6018751542,59567.0592711534,59901.3826022083,60237.5823409802
"245","LE16 8UT","MARKET HARBOROUGH","HARBOROUGH","LEICESTERSHIRE","LE16",35171.2990727882,35368.6998847037,35567.2086193168,35766.8314949033
"246","LE16 8DF","MARKET HARBOROUGH","HARBOROUGH","LEICESTERSHIRE","LE16",35171.2990727882,35368.6998847037,35567.2086193168,35766.8314949033
"247","LE16 8DF","MARKET HARBOROUGH","HARBOROUGH","LEICESTERSHIRE","LE16",35171.2990727882,35368.6998847037,35567.2086193168,35766.8314949033
"248","LE16 8DF","MARKET HARBOROUGH","HARBOROUGH","LEICESTERSHIRE","LE16",35171.2990727882,35368.6998847037,35567.2086193168,35766.8314949033
"249","BB18 6SF","BARNOLDSWICK","PENDLE","LANCASHIRE","BB18",17275.4180635148,17372.3772786083,17469.880682523,17567.9313295481
"250","LE12 9NX","LOUGHBOROUGH","CHARNWOOD","LEICESTERSHIRE","LE12",62470.6630736169,62821.2830375287,63173.8708748877,63528.4376304898
"251","LE12 9GR","LOUGHBOROUGH","NORTH WEST LEICESTERSHIRE","LEICESTERSHIRE","LE12",62470.6630736169,62821.2830375287,63173.8708748877,63528.4376304898
"252","LE12 9GR","LOUGHBOROUGH","NORTH WEST LEICESTERSHIRE","LEICESTERSHIRE","LE12",62470.6630736169,62821.2830375287,63173.8708748877,63528.4376304898
"253","CV13 0DJ","NUNEATON","HINCKLEY AND BOSWORTH","LEICESTERSHIRE","CV13",10774.1329025262,10834.6033042092,10895.4130992812,10956.564192606
"254","LE12 8BN","LOUGHBOROUGH","CHARNWOOD","LEICESTERSHIRE","LE12",62470.6630736169,62821.2830375287,63173.8708748877,63528.4376304898
"255","LE16 9TG","MARKET HARBOROUGH","HARBOROUGH","LEICESTERSHIRE","LE16",35171.2990727882,35368.6998847037,35567.2086193168,35766.8314949033
"256","LE12 9TP","LOUGHBOROUGH","NORTH WEST LEICESTERSHIRE","LEICESTERSHIRE","LE12",62470.6630736169,62821.2830375287,63173.8708748877,63528.4376304898
"257","BB10 3QR","BURNLEY","BURNLEY","LANCASHIRE","BB10",37642.08911773,37853.357371958,38065.8113806509,38279.4577989198
"258","BB12 7PP","BURNLEY","RIBBLE VALLEY","LANCASHIRE","BB12",34807.267328275,35002.6249924017,35199.0791119489,35396.6358408316
"259","BB18 6TW","BARNOLDSWICK","PENDLE","LANCASHIRE","BB18",17275.4180635148,17372.3772786083,17469.880682523,17567.9313295481
"260","BB18 6TE","BARNOLDSWICK","PENDLE","LANCASHIRE","BB18",17275.4180635148,17372.3772786083,17469.880682523,17567.9313295481
"261","BB12 8BY","BURNLEY","BURNLEY","LANCASHIRE","BB12",34807.267328275,35002.6249924017,35199.0791119489,35396.6358408316
"262","LE10 3AF","HINCKLEY","BLABY","LEICESTERSHIRE","LE10",47740.4503840328,48008.3962352087,48277.8459469177,48548.807959658
"263","LE14 4AE","MELTON MOWBRAY","MELTON","LEICESTERSHIRE","LE14",17418.2150461691,17515.9757170251,17614.285074916,17713.1461993773
"264","LE12 7WX","LOUGHBOROUGH","CHARNWOOD","LEICESTERSHIRE","LE12",62470.6630736169,62821.2830375287,63173.8708748877,63528.4376304898
"265","BB18 6TW","BARNOLDSWICK","PENDLE","LANCASHIRE","BB18",17275.4180635148,17372.3772786083,17469.880682523,17567.9313295481
"266","NG13 0GZ","NOTTINGHAM","MELTON","LEICESTERSHIRE","NG13",21504.0188526806,21624.7113176413,21746.0811755674,21868.1322283634
"267","CV13 6AA","NUNEATON","HINCKLEY AND BOSWORTH","LEICESTERSHIRE","CV13",10774.1329025262,10834.6033042092,10895.4130992812,10956.564192606
"268","LE16 7HP","MARKET HARBOROUGH","HARBOROUGH","LEICESTERSHIRE","LE16",35171.2990727882,35368.6998847037,35567.2086193168,35766.8314949033
"269","BB18 6TE","BARNOLDSWICK","PENDLE","LANCASHIRE","BB18",17275.4180635148,17372.3772786083,17469.880682523,17567.9313295481
"270","BB12 9LH","BURNLEY","PENDLE","LANCASHIRE","BB12",34807.267328275,35002.6249924017,35199.0791119489,35396.6358408316
"271","BB18 6TW","BARNOLDSWICK","PENDLE","LANCASHIRE","BB18",17275.4180635148,17372.3772786083,17469.880682523,17567.9313295481
"272","LE12 7FP","LOUGHBOROUGH","CHARNWOOD","LEICESTERSHIRE","LE12",62470.6630736169,62821.2830375287,63173.8708748877,63528.4376304898
"273","LE14 2TQ","MELTON MOWBRAY","MELTON","LEICESTERSHIRE","LE14",17418.2150461691,17515.9757170251,17614.285074916,17713.1461993773
"274","LE10 2QS","HINCKLEY","HINCKLEY AND BOSWORTH","LEICESTERSHIRE","LE10",47740.4503840328,48008.3962352087,48277.8459469177,48548.807959658
"275","BB10 4SL","BURNLEY","BURNLEY","LANCASHIRE","BB10",37642.08911773,37853.357371958,38065.8113806509,38279.4577989198
"276","LE12 7BT","LOUGHBOROUGH","CHARNWOOD","LEICESTERSHIRE","LE12",62470.6630736169,62821.2830375287,63173.8708748877,63528.4376304898
"277","LE14 3LS","MELTON MOWBRAY","MELTON","LEICESTERSHIRE","LE14",17418.2150461691,17515.9757170251,17614.285074916,17713.1461993773
"278","LE10 2QS","HINCKLEY","HINCKLEY AND BOSWORTH","LEICESTERSHIRE","LE10",47740.4503840328,48008.3962352087,48277.8459469177,48548.807959658
"279","LE67 8JE","COALVILLE","NORTH WEST LEICESTERSHIRE","LEICESTERSHIRE","LE67",59234.6018751542,59567.0592711534,59901.3826022083,60237.5823409802
"280","LE10 2AJ","HINCKLEY","HINCKLEY AND BOSWORTH","LEICESTERSHIRE","LE10",47740.4503840328,48008.3962352087,48277.8459469177,48548.807959658
"281","LE65 1WF","ASHBY-DE-LA-ZOUCH","NORTH WEST LEICESTERSHIRE","LEICESTERSHIRE","LE65",14103.7160685019,14182.8739351814,14262.4760796546,14342.5249954544
"282","LE19 4PB","LEICESTER","BLABY","LEICESTERSHIRE","LE19",14844.8525207291,14928.1700556968,15011.9552148207,15096.2106226665
"283","CV13 0QG","NUNEATON","HINCKLEY AND BOSWORTH","LEICESTERSHIRE","CV13",10774.1329025262,10834.6033042092,10895.4130992812,10956.564192606
"284","LE17 5DF","LUTTERWORTH","HARBOROUGH","LEICESTERSHIRE","LE17",20763.8880130073,20880.4264537345,20997.618972742,21115.4692410797
"285","LE67 1FH","COALVILLE","NORTH WEST LEICESTERSHIRE","LEICESTERSHIRE","LE67",59234.6018751542,59567.0592711534,59901.3826022083,60237.5823409802
"286","LE19 2AP","LEICESTER","BLABY","LEICESTERSHIRE","LE19",14844.8525207291,14928.1700556968,15011.9552148207,15096.2106226665
"287","LE15 8DT","OAKHAM","HARBOROUGH","LEICESTERSHIRE","LE15",32506.4258049429,32688.8698719957,32872.3379162092,33056.8356847105
"288","LE12 7XF","LOUGHBOROUGH","CHARNWOOD","LEICESTERSHIRE","LE12",62470.6630736169,62821.2830375287,63173.8708748877,63528.4376304898
"289","DE74 2BD","DERBY","NORTH WEST LEICESTERSHIRE","LEICESTERSHIRE","DE74",11555.4938569095,11620.3496890674,11685.5695280792,11751.1554169531
"290","BB18 6TW","BARNOLDSWICK","PENDLE","LANCASHIRE","BB18",17275.4180635148,17372.3772786083,17469.880682523,17567.9313295481
"291","BB18 6XY","BARNOLDSWICK","PENDLE","LANCASHIRE","BB18",17275.4180635148,17372.3772786083,17469.880682523,17567.9313295481
"292","LE12 7EA","LOUGHBOROUGH","CHARNWOOD","LEICESTERSHIRE","LE12",62470.6630736169,62821.2830375287,63173.8708748877,63528.4376304898
"293","LE12 8LR","LOUGHBOROUGH","CHARNWOOD","LEICESTERSHIRE","LE12",62470.6630736169,62821.2830375287,63173.8708748877,63528.4376304898
"294","LE12 8FY","LOUGHBOROUGH","CHARNWOOD","LEICESTERSHIRE","LE12",62470.6630736169,62821.2830375287,63173.8708748877,63528.4376304898
"295","LE65 2UN","ASHBY-DE-LA-ZOUCH","NORTH WEST LEICESTERSHIRE","LEICESTERSHIRE","LE65",14103.7160685019,14182.8739351814,14262.4760796546,14342.5249954544
"296","LE12 8ST","LOUGHBOROUGH","CHARNWOOD","LEICESTERSHIRE","LE12",62470.6630736169,62821.2830375287,63173.8708748877,63528.4376304898
"297","LE16 8DF","MARKET HARBOROUGH","HARBOROUGH","LEICESTERSHIRE","LE16",35171.2990727882,35368.6998847037,35567.2086193168,35766.8314949033
"298","LE12 5AZ","LOUGHBOROUGH","CHARNWOOD","LEICESTERSHIRE","LE12",62470.6630736169,62821.2830375287,63173.8708748877,63528.4376304898
"299","BB10 3RF","BURNLEY","PENDLE","LANCASHIRE","BB10",37642.08911773,37853.357371958,38065.8113806509,38279.4577989198
"300","LE19 4PZ","LEICESTER","BLABY","LEICESTERSHIRE","LE19",14844.8525207291,14928.1700556968,15011.9552148207,15096.2106226665
"301","OL12 8ND","ROCHDALE","ROSSENDALE","LANCASHIRE","OL12",45923.3084991285,46181.0555435244,46440.2492071005,46700.897609085
"302","LE12 8BN","LOUGHBOROUGH","CHARNWOOD","LEICESTERSHIRE","LE12",62470.6630736169,62821.2830375287,63173.8708748877,63528.4376304898
"303","LE12 8GL","LOUGHBOROUGH","CHARNWOOD","LEICESTERSHIRE","LE12",62470.6630736169,62821.2830375287,63173.8708748877,63528.4376304898
"304","LE67 8QE","COALVILLE","NORTH WEST LEICESTERSHIRE","LEICESTERSHIRE","LE67",59234.6018751542,59567.0592711534,59901.3826022083,60237.5823409802
"305","LE17 5QJ","LUTTERWORTH","HARBOROUGH","LEICESTERSHIRE","LE17",20763.8880130073,20880.4264537345,20997.618972742,21115.4692410797
"306","LE19 4PB","LEICESTER","BLABY","LEICESTERSHIRE","LE19",14844.8525207291,14928.1700556968,15011.9552148207,15096.2106226665
"307","LE67 8QJ","COALVILLE","NORTH WEST LEICESTERSHIRE","LEICESTERSHIRE","LE67",59234.6018751542,59567.0592711534,59901.3826022083,60237.5823409802
"308","LE10 2AW","HINCKLEY","HINCKLEY AND BOSWORTH","LEICESTERSHIRE","LE10",47740.4503840328,48008.3962352087,48277.8459469177,48548.807959658
"309","BB10 4SL","BURNLEY","BURNLEY","LANCASHIRE","BB10",37642.08911773,37853.357371958,38065.8113806509,38279.4577989198
"310","LE10 2AH","HINCKLEY","HINCKLEY AND BOSWORTH","LEICESTERSHIRE","LE10",47740.4503840328,48008.3962352087,48277.8459469177,48548.807959658
"311","DE12 7QX","SWADLINCOTE","NORTH WEST LEICESTERSHIRE","LEICESTERSHIRE","DE12",20576.8440779812,20692.3327245406,20808.4695573541,20925.258214402
"312","NG13 0BG","NOTTINGHAM","MELTON","LEICESTERSHIRE","NG13",21504.0188526806,21624.7113176413,21746.0811755674,21868.1322283634
"313","LE65 2UN","ASHBY-DE-LA-ZOUCH","NORTH WEST LEICESTERSHIRE","LEICESTERSHIRE","LE65",14103.7160685019,14182.8739351814,14262.4760796546,14342.5249954544
"314","LE12 7DR","LOUGHBOROUGH","CHARNWOOD","LEICESTERSHIRE","LE12",62470.6630736169,62821.2830375287,63173.8708748877,63528.4376304898
"315","LE14 4ND","MELTON MOWBRAY","MELTON","LEICESTERSHIRE","LE14",17418.2150461691,17515.9757170251,17614.285074916,17713.1461993773
"316","CV13 0LT","NUNEATON","HINCKLEY AND BOSWORTH","LEICESTERSHIRE","CV13",10774.1329025262,10834.6033042092,10895.4130992812,10956.564192606
"317","LE12 9WQ","LOUGHBOROUGH","NORTH WEST LEICESTERSHIRE","LEICESTERSHIRE","LE12",62470.6630736169,62821.2830375287,63173.8708748877,63528.4376304898
"318","LE12 5BP","LOUGHBOROUGH","CHARNWOOD","LEICESTERSHIRE","LE12",62470.6630736169,62821.2830375287,63173.8708748877,63528.4376304898
"319","BB12 7FS","BURNLEY","RIBBLE VALLEY","LANCASHIRE","BB12",34807.267328275,35002.6249924017,35199.0791119489,35396.6358408316
"320","BB12 7FS","BURNLEY","RIBBLE VALLEY","LANCASHIRE","BB12",34807.267328275,35002.6249924017,35199.0791119489,35396.6358408316
"321","LE14 4FE","MELTON MOWBRAY","MELTON","LEICESTERSHIRE","LE14",17418.2150461691,17515.9757170251,17614.285074916,17713.1461993773
"322","LE12 5BP","LOUGHBOROUGH","CHARNWOOD","LEICESTERSHIRE","LE12",62470.6630736169,62821.2830375287,63173.8708748877,63528.4376304898
"323","BB10 3QL","BURNLEY","BURNLEY","LANCASHIRE","BB10",37642.08911773,37853.357371958,38065.8113806509,38279.4577989198
"324","LE19 4AT","LEICESTER","BLABY","LEICESTERSHIRE","LE19",14844.8525207291,14928.1700556968,15011.9552148207,15096.2106226665
"325","LE12 8JW","LOUGHBOROUGH","CHARNWOOD","LEICESTERSHIRE","LE12",62470.6630736169,62821.2830375287,63173.8708748877,63528.4376304898
"326","LE17 5DS","LUTTERWORTH","HARBOROUGH","LEICESTERSHIRE","LE17",20763.8880130073,20880.4264537345,20997.618972742,21115.4692410797
"327","LE12 5TQ","LOUGHBOROUGH","CHARNWOOD","LEICESTERSHIRE","LE12",62470.6630736169,62821.2830375287,63173.8708748877,63528.4376304898
"328","OL12 8QY","ROCHDALE","ROSSENDALE","LANCASHIRE","OL12",45923.3084991285,46181.0555435244,46440.2492071005,46700.897609085
"329","LE10 2AU","HINCKLEY","HINCKLEY AND BOSWORTH","LEICESTERSHIRE","LE10",47740.4503840328,48008.3962352087,48277.8459469177,48548.807959658
"330","BB12 8EW","BURNLEY","BURNLEY","LANCASHIRE","BB12",34807.267328275,35002.6249924017,35199.0791119489,35396.6358408316
"331","BB10 4ST","BURNLEY","BURNLEY","LANCASHIRE","BB10",37642.08911773,37853.357371958,38065.8113806509,38279.4577989198
"332","BB18 6XB","BARNOLDSWICK","PENDLE","LANCASHIRE","BB18",17275.4180635148,17372.3772786083,17469.880682523,17567.9313295481
"333","LE16 9TG","MARKET HARBOROUGH","HARBOROUGH","LEICESTERSHIRE","LE16",35171.2990727882,35368.6998847037,35567.2086193168,35766.8314949033
"334","LE14 2AZ","MELTON MOWBRAY","MELTON","LEICESTERSHIRE","LE14",17418.2150461691,17515.9757170251,17614.285074916,17713.1461993773
"335","DE12 7LW","SWADLINCOTE","NORTH WEST LEICESTERSHIRE","LEICESTERSHIRE","DE12",20576.8440779812,20692.3327245406,20808.4695573541,20925.258214402
"336","LE10 2AJ","HINCKLEY","HINCKLEY AND BOSWORTH","LEICESTERSHIRE","LE10",47740.4503840328,48008.3962352087,48277.8459469177,48548.807959658
"337","LE12 8GL","LOUGHBOROUGH","CHARNWOOD","LEICESTERSHIRE","LE12",62470.6630736169,62821.2830375287,63173.8708748877,63528.4376304898
"338","DE74 2AB","DERBY","NORTH WEST LEICESTERSHIRE","LEICESTERSHIRE","DE74",11555.4938569095,11620.3496890674,11685.5695280792,11751.1554169531
"339","LE14 2QA","MELTON MOWBRAY","MELTON","LEICESTERSHIRE","LE14",17418.2150461691,17515.9757170251,17614.285074916,17713.1461993773
"340","LE14 2QA","MELTON MOWBRAY","MELTON","LEICESTERSHIRE","LE14",17418.2150461691,17515.9757170251,17614.285074916,17713.1461993773
"341","LE12 7WX","LOUGHBOROUGH","CHARNWOOD","LEICESTERSHIRE","LE12",62470.6630736169,62821.2830375287,63173.8708748877,63528.4376304898
"342","DE12 7LW","SWADLINCOTE","NORTH WEST LEICESTERSHIRE","LEICESTERSHIRE","DE12",20576.8440779812,20692.3327245406,20808.4695573541,20925.258214402
"343","LE16 9TG","MARKET HARBOROUGH","HARBOROUGH","LEICESTERSHIRE","LE16",35171.2990727882,35368.6998847037,35567.2086193168,35766.8314949033
"344","DE12 7JG","SWADLINCOTE","NORTH WEST LEICESTERSHIRE","LEICESTERSHIRE","DE12",20576.8440779812,20692.3327245406,20808.4695573541,20925.258214402
"345","LE12 9TP","LOUGHBOROUGH","NORTH WEST LEICESTERSHIRE","LEICESTERSHIRE","LE12",62470.6630736169,62821.2830375287,63173.8708748877,63528.4376304898
"346","LE10 2AH","HINCKLEY","HINCKLEY AND BOSWORTH","LEICESTERSHIRE","LE10",47740.4503840328,48008.3962352087,48277.8459469177,48548.807959658
"347","LE12 8WA","LOUGHBOROUGH","CHARNWOOD","LEICESTERSHIRE","LE12",62470.6630736169,62821.2830375287,63173.8708748877,63528.4376304898
"348","LE12 8SS","LOUGHBOROUGH","CHARNWOOD","LEICESTERSHIRE","LE12",62470.6630736169,62821.2830375287,63173.8708748877,63528.4376304898
"349","LE12 7AA","LOUGHBOROUGH","CHARNWOOD","LEICESTERSHIRE","LE12",62470.6630736169,62821.2830375287,63173.8708748877,63528.4376304898
"350","LE12 8FL","LOUGHBOROUGH","CHARNWOOD","LEICESTERSHIRE","LE12",62470.6630736169,62821.2830375287,63173.8708748877,63528.4376304898
"351","LE17 6LR","LUTTERWORTH","HARBOROUGH","LEICESTERSHIRE","LE17",20763.8880130073,20880.4264537345,20997.618972742,21115.4692410797
"352","CV13 0LT","NUNEATON","HINCKLEY AND BOSWORTH","LEICESTERSHIRE","CV13",10774.1329025262,10834.6033042092,10895.4130992812,10956.564192606
"353","CV13 0PQ","NUNEATON","HINCKLEY AND BOSWORTH","LEICESTERSHIRE","CV13",10774.1329025262,10834.6033042092,10895.4130992812,10956.564192606
"354","LE19 4PB","LEICESTER","BLABY","LEICESTERSHIRE","LE19",14844.8525207291,14928.1700556968,15011.9552148207,15096.2106226665
"355","BB11 5QF","BURNLEY","BURNLEY","LANCASHIRE","BB11",22345.7165602981,22471.1330990136,22597.2535448131,22724.081848413
"356","BB10 4RL","BURNLEY","BURNLEY","LANCASHIRE","BB10",37642.08911773,37853.357371958,38065.8113806509,38279.4577989198
"357","LE10 2AH","HINCKLEY","HINCKLEY AND BOSWORTH","LEICESTERSHIRE","LE10",47740.4503840328,48008.3962352087,48277.8459469177,48548.807959658
"358","PR26 9HG","LEYLAND","CHORLEY","LANCASHIRE","PR26",15675.4884902537,15763.4680143749,15851.9413283177,15940.911203504
"359","LE12 5AZ","LOUGHBOROUGH","CHARNWOOD","LEICESTERSHIRE","LE12",62470.6630736169,62821.2830375287,63173.8708748877,63528.4376304898
"360","LE19 2DW","LEICESTER","BLABY","LEICESTERSHIRE","LE19",14844.8525207291,14928.1700556968,15011.9552148207,15096.2106226665
"361","BB18 6JY","BARNOLDSWICK","PENDLE","LANCASHIRE","BB18",17275.4180635148,17372.3772786083,17469.880682523,17567.9313295481
"362","BB10 3RF","BURNLEY","PENDLE","LANCASHIRE","BB10",37642.08911773,37853.357371958,38065.8113806509,38279.4577989198
"363","DE74 2UD","DERBY","NORTH WEST LEICESTERSHIRE","LEICESTERSHIRE","DE74",11555.4938569095,11620.3496890674,11685.5695280792,11751.1554169531
"364","LE67 1UE","COALVILLE","NORTH WEST LEICESTERSHIRE","LEICESTERSHIRE","LE67",59234.6018751542,59567.0592711534,59901.3826022083,60237.5823409802
"365","CV13 0DJ","NUNEATON","HINCKLEY AND BOSWORTH","LEICESTERSHIRE","CV13",10774.1329025262,10834.6033042092,10895.4130992812,10956.564192606
"366","LE14 2PA","MELTON MOWBRAY","MELTON","LEICESTERSHIRE","LE14",17418.2150461691,17515.9757170251,17614.285074916,17713.1461993773
"367","LE19 4PB","LEICESTER","BLABY","LEICESTERSHIRE","LE19",14844.8525207291,14928.1700556968,15011.9552148207,15096.2106226665
"368","NG13 0FJ","NOTTINGHAM","MELTON","LEICESTERSHIRE","NG13",21504.0188526806,21624.7113176413,21746.0811755674,21868.1322283634
"369","LE67 8FZ","COALVILLE","NORTH WEST LEICESTERSHIRE","LEICESTERSHIRE","LE67",59234.6018751542,59567.0592711534,59901.3826022083,60237.5823409802
"370","LE17 6DB","LUTTERWORTH","HARBOROUGH","LEICESTERSHIRE","LE17",20763.8880130073,20880.4264537345,20997.618972742,21115.4692410797
"371","CV13 6EZ","NUNEATON","HINCKLEY AND BOSWORTH","LEICESTERSHIRE","CV13",10774.1329025262,10834.6033042092,10895.4130992812,10956.564192606
"372","LE12 8DT","LOUGHBOROUGH","CHARNWOOD","LEICESTERSHIRE","LE12",62470.6630736169,62821.2830375287,63173.8708748877,63528.4376304898
"373","LE12 7FP","LOUGHBOROUGH","CHARNWOOD","LEICESTERSHIRE","LE12",62470.6630736169,62821.2830375287,63173.8708748877,63528.4376304898
"374","LE14 4FE","MELTON MOWBRAY","MELTON","LEICESTERSHIRE","LE14",17418.2150461691,17515.9757170251,17614.285074916,17713.1461993773
"375","LE12 7RF","LOUGHBOROUGH","CHARNWOOD","LEICESTERSHIRE","LE12",62470.6630736169,62821.2830375287,63173.8708748877,63528.4376304898
"376","LE19 2AA","LEICESTER","BLABY","LEICESTERSHIRE","LE19",14844.8525207291,14928.1700556968,15011.9552148207,15096.2106226665
"377","LE17 5EG","LUTTERWORTH","HARBOROUGH","LEICESTERSHIRE","LE17",20763.8880130073,20880.4264537345,20997.618972742,21115.4692410797
"378","LE14 4FE","MELTON MOWBRAY","MELTON","LEICESTERSHIRE","LE14",17418.2150461691,17515.9757170251,17614.285074916,17713.1461993773
"379","BB12 7HS","BURNLEY","RIBBLE VALLEY","LANCASHIRE","BB12",34807.267328275,35002.6249924017,35199.0791119489,35396.6358408316
"380","BB10 3RW","BURNLEY","BURNLEY","LANCASHIRE","BB10",37642.08911773,37853.357371958,38065.8113806509,38279.4577989198
"381","BB18 6XY","BARNOLDSWICK","PENDLE","LANCASHIRE","BB18",17275.4180635148,17372.3772786083,17469.880682523,17567.9313295481
"382","LE16 7TY","MARKET HARBOROUGH","HARBOROUGH","LEICESTERSHIRE","LE16",35171.2990727882,35368.6998847037,35567.2086193168,35766.8314949033
"383","LE19 4PZ","LEICESTER","BLABY","LEICESTERSHIRE","LE19",14844.8525207291,14928.1700556968,15011.9552148207,15096.2106226665
"384","BB10 4RP","BURNLEY","BURNLEY","LANCASHIRE","BB10",37642.08911773,37853.357371958,38065.8113806509,38279.4577989198
"385","PR26 9HG","LEYLAND","CHORLEY","LANCASHIRE","PR26",15675.4884902537,15763.4680143749,15851.9413283177,15940.911203504
"386","CV13 0DJ","NUNEATON","HINCKLEY AND BOSWORTH","LEICESTERSHIRE","CV13",10774.1329025262,10834.6033042092,10895.4130992812,10956.564192606
"387","LE12 8WA","LOUGHBOROUGH","CHARNWOOD","LEICESTERSHIRE","LE12",62470.6630736169,62821.2830375287,63173.8708748877,63528.4376304898
"388","LE12 8ES","LOUGHBOROUGH","CHARNWOOD","LEICESTERSHIRE","LE12",62470.6630736169,62821.2830375287,63173.8708748877,63528.4376304898
"389","LE17 5JL","LUTTERWORTH","HARBOROUGH","LEICESTERSHIRE","LE17",20763.8880130073,20880.4264537345,20997.618972742,21115.4692410797
"390","LE14 4SF","MELTON MOWBRAY","MELTON","LEICESTERSHIRE","LE14",17418.2150461691,17515.9757170251,17614.285074916,17713.1461993773
"391","BB12 7RE","BURNLEY","RIBBLE VALLEY","LANCASHIRE","BB12",34807.267328275,35002.6249924017,35199.0791119489,35396.6358408316
"392","LE12 8WA","LOUGHBOROUGH","CHARNWOOD","LEICESTERSHIRE","LE12",62470.6630736169,62821.2830375287,63173.8708748877,63528.4376304898
"393","OL13 0HE","BACUP","ROSSENDALE","LANCASHIRE","OL13",15183.7439513947,15268.9635327846,15354.6614136687,15440.8402785288
"394","OL12 8HD","ROCHDALE","ROSSENDALE","LANCASHIRE","OL12",45923.3084991285,46181.0555435244,46440.2492071005,46700.897609085
"395","CV13 6ET","NUNEATON","HINCKLEY AND BOSWORTH","LEICESTERSHIRE","CV13",10774.1329025262,10834.6033042092,10895.4130992812,10956.564192606
"396","LE65 2UN","ASHBY-DE-LA-ZOUCH","NORTH WEST LEICESTERSHIRE","LEICESTERSHIRE","LE65",14103.7160685019,14182.8739351814,14262.4760796546,14342.5249954544
"397","LE65 2UN","ASHBY-DE-LA-ZOUCH","NORTH WEST LEICESTERSHIRE","LEICESTERSHIRE","LE65",14103.7160685019,14182.8739351814,14262.4760796546,14342.5249954544
"398","LE16 8UZ","MARKET HARBOROUGH","HARBOROUGH","LEICESTERSHIRE","LE16",35171.2990727882,35368.6998847037,35567.2086193168,35766.8314949033
"399","DE12 7HF","SWADLINCOTE","NORTH WEST LEICESTERSHIRE","LEICESTERSHIRE","DE12",20576.8440779812,20692.3327245406,20808.4695573541,20925.258214402
"400","LE10 2AH","HINCKLEY","HINCKLEY AND BOSWORTH","LEICESTERSHIRE","LE10",47740.4503840328,48008.3962352087,48277.8459469177,48548.807959658
"401","LE17 5BU","LUTTERWORTH","HARBOROUGH","LEICESTERSHIRE","LE17",20763.8880130073,20880.4264537345,20997.618972742,21115.4692410797
"402","LE67 2FZ","COALVILLE","NORTH WEST LEICESTERSHIRE","LEICESTERSHIRE","LE67",59234.6018751542,59567.0592711534,59901.3826022083,60237.5823409802
"403","LE67 2FZ","COALVILLE","NORTH WEST LEICESTERSHIRE","LEICESTERSHIRE","LE67",59234.6018751542,59567.0592711534,59901.3826022083,60237.5823409802
"404","OL12 8XG","ROCHDALE","ROSSENDALE","LANCASHIRE","OL12",45923.3084991285,46181.0555435244,46440.2492071005,46700.897609085
"405","DE12 7QW","SWADLINCOTE","NORTH WEST LEICESTERSHIRE","LEICESTERSHIRE","DE12",20576.8440779812,20692.3327245406,20808.4695573541,20925.258214402
"406","LE16 8UJ","MARKET HARBOROUGH","HARBOROUGH","LEICESTERSHIRE","LE16",35171.2990727882,35368.6998847037,35567.2086193168,35766.8314949033
"407","LE67 8FZ","COALVILLE","NORTH WEST LEICESTERSHIRE","LEICESTERSHIRE","LE67",59234.6018751542,59567.0592711534,59901.3826022083,60237.5823409802
"408","LE12 9UQ","LOUGHBOROUGH","CHARNWOOD","LEICESTERSHIRE","LE12",62470.6630736169,62821.2830375287,63173.8708748877,63528.4376304898
"409","CV13 0LT","NUNEATON","HINCKLEY AND BOSWORTH","LEICESTERSHIRE","CV13",10774.1329025262,10834.6033042092,10895.4130992812,10956.564192606
"410","WA11 7TQ","ST HELENS","WEST LANCASHIRE","LANCASHIRE","WA11",40743.3982339696,40972.072752785,41202.0307196637,41433.2793380272
"411","BB12 9NR","BURNLEY","PENDLE","LANCASHIRE","BB12",34807.267328275,35002.6249924017,35199.0791119489,35396.6358408316
"412","LE17 5NQ","LUTTERWORTH","HARBOROUGH","LEICESTERSHIRE","LE17",20763.8880130073,20880.4264537345,20997.618972742,21115.4692410797
"413","LE10 2AJ","HINCKLEY","HINCKLEY AND BOSWORTH","LEICESTERSHIRE","LE10",47740.4503840328,48008.3962352087,48277.8459469177,48548.807959658
"414","CV13 0BQ","NUNEATON","HINCKLEY AND BOSWORTH","LEICESTERSHIRE","CV13",10774.1329025262,10834.6033042092,10895.4130992812,10956.564192606
"415","PR26 9AY","LEYLAND","CHORLEY","LANCASHIRE","PR26",15675.4884902537,15763.4680143749,15851.9413283177,15940.911203504
"416","LE16 7HP","MARKET HARBOROUGH","HARBOROUGH","LEICESTERSHIRE","LE16",35171.2990727882,35368.6998847037,35567.2086193168,35766.8314949033
"417","DE74 2NH","DERBY","NORTH WEST LEICESTERSHIRE","LEICESTERSHIRE","DE74",11555.4938569095,11620.3496890674,11685.5695280792,11751.1554169531
"418","LE19 3AA","LEICESTER","BLABY","LEICESTERSHIRE","LE19",14844.8525207291,14928.1700556968,15011.9552148207,15096.2106226665
"419","LE19 3AA","LEICESTER","BLABY","LEICESTERSHIRE","LE19",14844.8525207291,14928.1700556968,15011.9552148207,15096.2106226665
"420","BB12 7RE","BURNLEY","RIBBLE VALLEY","LANCASHIRE","BB12",34807.267328275,35002.6249924017,35199.0791119489,35396.6358408316
"421","BB12 9AF","BURNLEY","PENDLE","LANCASHIRE","BB12",34807.267328275,35002.6249924017,35199.0791119489,35396.6358408316
"422","LE19 2DF","LEICESTER","BLABY","LEICESTERSHIRE","LE19",14844.8525207291,14928.1700556968,15011.9552148207,15096.2106226665
"423","LE12 7FP","LOUGHBOROUGH","CHARNWOOD","LEICESTERSHIRE","LE12",62470.6630736169,62821.2830375287,63173.8708748877,63528.4376304898
"424","LE10 2ND","HINCKLEY","HINCKLEY AND BOSWORTH","LEICESTERSHIRE","LE10",47740.4503840328,48008.3962352087,48277.8459469177,48548.807959658
"425","LE10 2ND","HINCKLEY","HINCKLEY AND BOSWORTH","LEICESTERSHIRE","LE10",47740.4503840328,48008.3962352087,48277.8459469177,48548.807959658
"426","LE10 2AJ","HINCKLEY","HINCKLEY AND BOSWORTH","LEICESTERSHIRE","LE10",47740.4503840328,48008.3962352087,48277.8459469177,48548.807959658
"427","DE12 6EZ","SWADLINCOTE","NORTH WEST LEICESTERSHIRE","LEICESTERSHIRE","DE12",20576.8440779812,20692.3327245406,20808.4695573541,20925.258214402
"428","BB12 8EW","BURNLEY","BURNLEY","LANCASHIRE","BB12",34807.267328275,35002.6249924017,35199.0791119489,35396.6358408316
"429","LE67 2FZ","COALVILLE","NORTH WEST LEICESTERSHIRE","LEICESTERSHIRE","LE67",59234.6018751542,59567.0592711534,59901.3826022083,60237.5823409802
"430","BB12 9NZ","BURNLEY","PENDLE","LANCASHIRE","BB12",34807.267328275,35002.6249924017,35199.0791119489,35396.6358408316
